STARLINK-31084          
1 58630U 23203N   26068.06230176  .00000119  00000+0  13849-4 0  9998
2 58630  43.0074  74.2277 0001867 288.8241  71.2408 15.27573980123427
FLOCK 4G-15             
1 62678U 25009BX  26068.71779869  .00012647  00000+0  47575-3 0  9991
2 62678  97.4054 151.1927 0003699 316.8208  43.2740 15.27266411121358
